NORAD_CAT_ID,OBJECT_NAME,OBJECT_TYPE,EPOCH,MEAN_MOTION,ECCENTRICITY,INCLINATION,RA_OF_ASC_NODE,ARG_OF_PERICENTER,MEAN_ANOMALY,BSTAR,MEAN_MOTION_DOT,MEAN_MOTION_DDOT,TLE_LINE0,TLE_LINE1,TLE_LINE2,SEMIMAJOR_AXIS,PERIOD,APOGEE,PERIGEE,DECAYED
52671.0,STARLINK-4071,PAYLOAD,2023-06-11 11:56:10,15.08833497,0.0001111,53.2176,333.1359,89.7577,270.3542,4.8374e-05,4.82e-06,0.0,0 STARLINK-4071,1 52671U 22053R   23162.49734741  .00000482  00000-0  48374-4 0  9990,2 52671  53.2176 333.1359 0001111  89.7577 270.3542 15.08833497 59321,6917.9,95.438,540.534,538.997,0.0
52671.0,STARLINK-4071,PAYLOAD,2023-06-11 18:17:43,15.08836954,0.0001084,53.2175,331.947,84.7062,275.4053,9.2074e-05,1.178e-05,0.0,0 STARLINK-4071,1 52671U 22053R   23162.76230435  .00001178  00000-0  92074-4 0  9990,2 52671  53.2175 331.9470 0001084  84.7062 275.4053 15.08836954 59787,6917.89,95.438,540.505,539.005,0.0
52671.0,STARLINK-4071,PAYLOAD,2023-06-12 03:50:01,15.08842712,0.0001056,53.2173,330.1621,87.8551,272.2562,5.3247e-05,5.6e-06,0.0,0 STARLINK-4071,1 52671U 22053R   23163.15974133  .00000560  00000-0  53247-4 0  9997,2 52671  53.2173 330.1621 0001056  87.8551 272.2562 15.08842712 59420,6917.872,95.437,540.468,539.007,0.0
52671.0,STARLINK-4071,PAYLOAD,2023-06-12 11:46:57,15.08839724,0.0001063,53.2183,328.6765,97.3794,262.7319,-2.0872e-05,-6.2e-06,0.0,0 STARLINK-4071,1 52671U 22053R   23163.49094614 -.00000620  00000-0 -20872-4 0  9998,2 52671  53.2183 328.6765 0001063  97.3794 262.7319 15.08839724 59899,6917.881,95.438,540.482,539.011,0.0
52671.0,STARLINK-4071,PAYLOAD,2023-06-13 03:40:49,15.08841256,0.0001083,53.2183,325.703,96.9872,263.1243,-2.3019e-05,-6.54e-06,0.0,0 STARLINK-4071,1 52671U 22053R   23164.15334494 -.00000654  00000-0 -23019-4 0  9998,2 52671  53.2183 325.7030 0001083  96.9872 263.1243 15.08841256 59991,6917.877,95.437,540.491,538.992,0.0
52671.0,STARLINK-4071,PAYLOAD,2023-06-13 19:34:40,15.08832238,9.83e-05,53.2185,322.7299,99.7737,260.3366,8.8764e-05,1.125e-05,0.0,0 STARLINK-4071,1 52671U 22053R   23164.81574949  .00001125  00000-0  88764-4 0  9992,2 52671  53.2185 322.7299 0000983  99.7737 260.3366 15.08832238 60094,6917.904,95.438,540.449,539.089,0.0
52671.0,STARLINK-4071,PAYLOAD,2023-06-14 11:28:32,15.08833534,0.0001249,53.219,319.7549,99.6617,260.4517,9.9108e-05,1.29e-05,0.0,0 STARLINK-4071,1 52671U 22053R   23165.47814997  .00001290  00000-0  99108-4 0  9992,2 52671  53.2190 319.7549 0001249  99.6617 260.4517 15.08833534 60196,6917.9,95.438,540.629,538.901,0.0
52671.0,STARLINK-4071,PAYLOAD,2023-06-14 19:25:27,15.08839531,0.0001105,53.2178,318.2667,96.3887,263.7231,5.934e-05,6.57e-06,0.0,0 STARLINK-4071,1 52671U 22053R   23165.80934735  .00000657  00000-0  59340-4 0  9992,2 52671  53.2178 318.2667 0001105  96.3887 263.7231 15.08839531 60249,6917.882,95.438,540.511,538.982,0.0
52671.0,STARLINK-4071,PAYLOAD,2023-06-15 09:43:56,15.08834769,0.0001044,53.2171,315.5899,91.3929,268.7183,8.0267e-05,9.9e-06,0.0,0 STARLINK-4071,1 52671U 22053R   23166.40551046  .00000990  00000-0  80267-4 0  9991,2 52671  53.2171 315.5899 0001044  91.3929 268.7183 15.08834769 59914,6917.896,95.438,540.484,539.039,0.0
52671.0,STARLINK-4071,PAYLOAD,2023-06-15 16:05:28,15.08844384,0.0001016,53.2167,314.4005,101.2492,258.8614,6.6639e-05,7.73e-06,0.0,0 STARLINK-4071,1 52671U 22053R   23166.67046527  .00000773  00000-0  66639-4 0  9999,2 52671  53.2167 314.4005 0001016 101.2492 258.8614 15.08844384 59958,6917.867,95.437,540.435,539.029,0.0
52671.0,STARLINK-4071,PAYLOAD,2023-06-16 09:34:42,15.08843995,0.0001109,53.2171,311.1301,89.1869,270.925,7.3124e-05,8.76e-06,0.0,0 STARLINK-4071,1 52671U 22053R   23167.39910478  .00000876  00000-0  73124-4 0  9995,2 52671  53.2171 311.1301 0001109  89.1869 270.9250 15.08843995 60489,6917.868,95.437,540.5,538.966,0.0
52671.0,STARLINK-4071,PAYLOAD,2023-06-16 19:07:00,15.08855566,0.0001092,53.2163,309.3455,94.5488,265.5629,0.00015985,2.258e-05,0.0,0 STARLINK-4071,1 52671U 22053R   23167.79653217  .00002258  00000-0  15985-3 0  9990,2 52671  53.2163 309.3455 0001092  94.5488 265.5629 15.08855566 60541,6917.833,95.437,540.453,538.942,0.0
52671.0,STARLINK-4071,PAYLOAD,2023-06-17 09:25:30,15.08828921,0.0001427,53.2165,306.6706,101.4415,258.6738,-5.0884e-05,-1.097e-05,0.0,0 STARLINK-4071,1 52671U 22053R   23168.39271706 -.00001097  00000-0 -50884-4 0  9996,2 52671  53.2165 306.6706 0001427 101.4415 258.6738 15.08828921 60215,6917.914,95.438,540.766,538.792,0.0
52671.0,STARLINK-4071,PAYLOAD,2023-06-17 15:47:03,15.08827239,0.0001494,53.2166,305.4811,99.825,260.2911,-6.2265e-05,-1.278e-05,0.0,0 STARLINK-4071,1 52671U 22053R   23168.65768027 -.00001278  00000-0 -62265-4 0  9999,2 52671  53.2166 305.4811 0001494  99.8250 260.2911 15.08827239 60674,6917.919,95.438,540.818,538.751,0.0
52671.0,STARLINK-4071,PAYLOAD,2023-06-18 15:37:49,15.08845276,0.0001092,53.2164,301.0212,102.8388,257.2726,4.3548e-05,4.05e-06,0.0,0 STARLINK-4071,1 52671U 22053R   23169.65126756  .00000405  00000-0  43548-4 0  9999,2 52671  53.2164 301.0212 0001092 102.8388 257.2726 15.08845276 60402,6917.864,95.437,540.485,538.974,0.0
52671.0,STARLINK-4071,PAYLOAD,2023-06-19 09:07:04,15.08828969,9.87e-05,53.2184,297.7512,110.3422,249.7676,0.00021717,3.169e-05,0.0,0 STARLINK-4071,1 52671U 22053R   23170.37991508  .00003169  00000-0  21717-3 0  9998,2 52671  53.2184 297.7512 0000987 110.3422 249.7676 15.08828969 60515,6917.914,95.438,540.462,539.096,0.0
52671.0,STARLINK-4071,PAYLOAD,2023-06-19 15:28:37,15.08830948,9.02e-05,53.2182,296.5625,106.4524,253.6567,0.00023594,3.468e-05,0.0,0 STARLINK-4071,1 52671U 22053R   23170.64487488  .00003468  00000-0  23594-3 0  9992,2 52671  53.2182 296.5625 0000902 106.4524 253.6567 15.08830948 60974,6917.908,95.438,540.397,539.149,0.0
52671.0,STARLINK-4071,PAYLOAD,2023-06-20 07:22:28,15.08842434,8.5e-05,53.2173,293.5889,112.2733,247.835,-1.2398e-06,-3.07e-06,0.0,0 STARLINK-4071,1 52671U 22053R   23171.30727610 -.00000307  00000-0 -12398-5 0  9993,2 52671  53.2173 293.5889 0000850 112.2733 247.8350 15.08842434 61072,6917.873,95.437,540.326,539.15,0.0
52671.0,STARLINK-4071,PAYLOAD,2023-06-20 15:19:24,15.08842949,8.34e-05,53.2172,292.1017,111.3168,248.7913,-1.185e-06,-3.07e-06,0.0,0 STARLINK-4071,1 52671U 22053R   23171.63847515 -.00000307  00000-0 -11850-5 0  9998,2 52671  53.2172 292.1017 0000834 111.3168 248.7913 15.08842949 60708,6917.871,95.437,540.313,539.159,0.0
52671.0,STARLINK-4071,PAYLOAD,2023-06-21 11:59:25,15.08824765,5.54e-05,53.217,288.2363,103.3908,256.7146,0.00021878,3.195e-05,0.0,0 STARLINK-4071,1 52671U 22053R   23172.49960209  .00003195  00000-0  21878-3 0  9994,2 52671  53.2170 288.2363 0000554 103.3908 256.7146 15.08824765 60835,6917.927,95.439,540.175,539.409,0.0
52671.0,STARLINK-4071,PAYLOAD,2023-06-21 13:34:48,15.08840266,5.23e-05,53.2167,287.9388,51.8482,308.2557,5.7563e-05,6.29e-06,0.0,0 STARLINK-4071,1 52671U 22053R   23172.56583574  .00000629  00000-0  57563-4 0  9998,2 52671  53.2167 287.9388 0000523  51.8482 308.2557 15.08840266 61265,6917.88,95.438,540.106,539.383,0.0
52671.0,STARLINK-4071,PAYLOAD,2023-06-21 15:10:10,15.08856239,7.13e-05,53.2165,287.6416,74.7162,285.3909,-0.00012064,-2.208e-05,0.0,0 STARLINK-4071,1 52671U 22053R   23172.63206982 -.00002208  00000-0 -12064-3 0  9994,2 52671  53.2165 287.6416 0000713  74.7162 285.3909 15.08856239 60859,6917.831,95.437,540.189,539.203,0.0
52671.0,STARLINK-4071,PAYLOAD,2023-06-22 00:42:30,15.0883258,7.85e-05,53.2165,285.8573,102.5795,257.5285,0.00015274,2.144e-05,0.0,0 STARLINK-4071,1 52671U 22053R   23173.02951840  .00002144  00000-0  15274-3 0  9991,2 52671  53.2165 285.8573 0000785 102.5795 257.5285 15.08832580 60912,6917.903,95.438,540.311,539.225,0.0
52671.0,STARLINK-4071,PAYLOAD,2023-06-22 15:00:58,15.08843376,9.3e-05,53.2172,283.18,98.5955,261.5143,7.2902e-05,8.73e-06,0.0,0 STARLINK-4071,1 52671U 22053R   23173.62567380  .00000873  00000-0  72902-4 0  9998,2 52671  53.2172 283.1800 0000930  98.5955 261.5143 15.08843376 61002,6917.87,95.437,540.378,539.092,0.0
52671.0,STARLINK-4071,PAYLOAD,2023-06-23 00:33:17,15.08835882,9.25e-05,53.2183,281.3933,71.6624,288.4468,6.0038e-05,6.68e-06,0.0,0 STARLINK-4071,1 52671U 22053R   23174.02311996  .00000668  00000-0  60038-4 0  9992,2 52671  53.2183 281.3933 0000925  71.6624 288.4468 15.08835882 61067,6917.893,95.438,540.398,539.118,0.0
52671.0,STARLINK-4071,PAYLOAD,2023-06-24 06:45:37,15.08834094,6.94e-05,53.2175,275.7435,94.1582,265.949,0.00011203,1.496e-05,0.0,0 STARLINK-4071,1 52671U 22053R   23175.28168111  .00001496  00000-0  11203-3 0  9999,2 52671  53.2175 275.7435 0000694  94.1582 265.9490 15.08834094 61258,6917.898,95.438,540.244,539.283,0.0
52671.0,STARLINK-4071,PAYLOAD,2023-06-24 13:07:08,15.08849844,7.39e-05,53.2173,274.5546,90.3825,269.7252,9.3682e-05,1.204e-05,0.0,0 STARLINK-4071,1 52671U 22053R   23175.54663194  .00001204  00000-0  93682-4 0  9998,2 52671  53.2173 274.5546 0000739  90.3825 269.7252 15.08849844 61295,6917.85,95.437,540.227,539.204,0.0
52671.0,STARLINK-4071,PAYLOAD,2023-06-25 09:47:10,15.08838456,9.57e-05,53.2177,270.6905,84.5112,275.5989,0.00013159,1.807e-05,0.0,0 STARLINK-4071,1 52671U 22053R   23176.40775751  .00001807  00000-0  13159-3 0  9996,2 52671  53.2177 270.6905 0000957  84.5112 275.5989 15.08838456 61425,6917.885,95.438,540.412,539.088,0.0
52671.0,STARLINK-4071,PAYLOAD,2023-06-25 16:08:42,15.08847128,9.2e-05,53.2174,269.4989,94.2048,265.905,7.8125e-05,9.56e-06,0.0,0 STARLINK-4071,1 52671U 22053R   23176.67271274  .00000956  00000-0  78125-4 0  9995,2 52671  53.2174 269.4989 0000920  94.2048 265.9050 15.08847128 61468,6917.859,95.437,540.36,539.087,0.0
52671.0,STARLINK-4071,PAYLOAD,2023-06-26 09:37:57,15.0883571,8.41e-05,53.2172,266.2301,91.1365,268.9724,-1.6752e-05,-5.54e-06,0.0,0 STARLINK-4071,1 52671U 22053R   23177.40136493 -.00000554  00000-0 -16752-4 0  9994,2 52671  53.2172 266.2301 0000841  91.1365 268.9724 15.08835710 61576,6917.894,95.438,540.34,539.177,0.0
